CCSDS_OMM_VERS = 2.0
CREATION_DATE  = 
ORIGINATOR     = 

OBJECT_NAME    = STARLINK-35741
OBJECT_ID      = 2025-247H
CENTER_NAME    = EARTH
REF_FRAME      = TEME
TIME_SYSTEM    = UTC
MEAN_ELEMENT_THEORY = SGP/SGP4

EPOCH          = 2025-11-27T23:07:16.977216
MEAN_MOTION    = 15.39641027
ECCENTRICITY   = .00013957
INCLINATION    = 53.1593
RA_OF_ASC_NODE = 307.1660
ARG_OF_PERICENTER = 84.9792
MEAN_ANOMALY   = 275.1372

EPHEMERIS_TYPE = 0
CLASSIFICATION_TYPE = U
NORAD_CAT_ID   = 66272
ELEMENT_SET_NO = 999
REV_AT_EPOCH   = 546
BSTAR          = .12238063E-2
MEAN_MOTION_DOT = .489E-3
MEAN_MOTION_DDOT = 0

CCSDS_OMM_VERS = 2.0
CREATION_DATE  = 
ORIGINATOR     = 

OBJECT_NAME    = STARLINK-35730
OBJECT_ID      = 2025-247J
CENTER_NAME    = EARTH
REF_FRAME      = TEME
TIME_SYSTEM    = UTC
MEAN_ELEMENT_THEORY = SGP/SGP4

EPOCH          = 2025-11-27T23:01:04.810080
MEAN_MOTION    = 15.39653630
ECCENTRICITY   = .00015299
INCLINATION    = 53.1592
RA_OF_ASC_NODE = 307.1381
ARG_OF_PERICENTER = 88.6206
MEAN_ANOMALY   = 271.4974

EPHEMERIS_TYPE = 0
CLASSIFICATION_TYPE = U
NORAD_CAT_ID   = 66273
ELEMENT_SET_NO = 999
REV_AT_EPOCH   = 546
BSTAR          = .1253212E-2
MEAN_MOTION_DOT = .50114E-3
MEAN_MOTION_DDOT = 0

CCSDS_OMM_VERS = 2.0
CREATION_DATE  = 
ORIGINATOR     = 

OBJECT_NAME    = STARLINK-35760
OBJECT_ID      = 2025-247K
CENTER_NAME    = EARTH
REF_FRAME      = TEME
TIME_SYSTEM    = UTC
MEAN_ELEMENT_THEORY = SGP/SGP4

EPOCH          = 2025-11-27T23:00:35.814240
MEAN_MOTION    = 15.39640838
ECCENTRICITY   = .00017991
INCLINATION    = 53.1592
RA_OF_ASC_NODE = 307.1361
ARG_OF_PERICENTER = 86.1739
MEAN_ANOMALY   = 273.9472

EPHEMERIS_TYPE = 0
CLASSIFICATION_TYPE = U
NORAD_CAT_ID   = 66274
ELEMENT_SET_NO = 999
REV_AT_EPOCH   = 541
BSTAR          = .77603213E-3
MEAN_MOTION_DOT = .30788E-3
MEAN_MOTION_DDOT = 0

CCSDS_OMM_VERS = 2.0
CREATION_DATE  = 
ORIGINATOR     = 

OBJECT_NAME    = STARLINK-35752
OBJECT_ID      = 2025-247L
CENTER_NAME    = EARTH
REF_FRAME      = TEME
TIME_SYSTEM    = UTC
MEAN_ELEMENT_THEORY = SGP/SGP4

EPOCH          = 2025-11-28T00:00:02.000160
MEAN_MOTION    = 15.39587727
ECCENTRICITY   = .0001295
INCLINATION    = 53.1591
RA_OF_ASC_NODE = 306.8924
ARG_OF_PERICENTER = 98.5596
MEAN_ANOMALY   = 154.3630

EPHEMERIS_TYPE = 0
CLASSIFICATION_TYPE = U
NORAD_CAT_ID   = 66275
ELEMENT_SET_NO = 999
REV_AT_EPOCH   = 524
BSTAR          = .85859384E-3
MEAN_MOTION_DOT = .3406E-3
MEAN_MOTION_DDOT = 0

CCSDS_OMM_VERS = 2.0
CREATION_DATE  = 
ORIGINATOR     = 

OBJECT_NAME    = STARLINK-35742
OBJECT_ID      = 2025-247M
CENTER_NAME    = EARTH
REF_FRAME      = TEME
TIME_SYSTEM    = UTC
MEAN_ELEMENT_THEORY = SGP/SGP4

EPOCH          = 2025-11-28T00:00:02.000160
MEAN_MOTION    = 15.39590207
ECCENTRICITY   = .00013128
INCLINATION    = 53.1591
RA_OF_ASC_NODE = 306.8887
ARG_OF_PERICENTER = 97.3339
MEAN_ANOMALY   = 157.4514

EPHEMERIS_TYPE = 0
CLASSIFICATION_TYPE = U
NORAD_CAT_ID   = 66276
ELEMENT_SET_NO = 999
REV_AT_EPOCH   = 556
BSTAR          = .81337667E-3
MEAN_MOTION_DOT = .32241E-3
MEAN_MOTION_DDOT = 0

CCSDS_OMM_VERS = 2.0
CREATION_DATE  = 
ORIGINATOR     = 

OBJECT_NAME    = STARLINK-35708
OBJECT_ID      = 2025-247N
CENTER_NAME    = EARTH
REF_FRAME      = TEME
TIME_SYSTEM    = UTC
MEAN_ELEMENT_THEORY = SGP/SGP4

EPOCH          = 2025-11-28T00:00:02.000160
MEAN_MOTION    = 15.39591860
ECCENTRICITY   = .00013651
INCLINATION    = 53.1592
RA_OF_ASC_NODE = 306.8404
ARG_OF_PERICENTER = 95.2285
MEAN_ANOMALY   = 183.4382

EPHEMERIS_TYPE = 0
CLASSIFICATION_TYPE = U
NORAD_CAT_ID   = 66277
ELEMENT_SET_NO = 999
REV_AT_EPOCH   = 556
BSTAR          = .82122062E-3
MEAN_MOTION_DOT = .32558E-3
MEAN_MOTION_DDOT = 0

CCSDS_OMM_VERS = 2.0
CREATION_DATE  = 
ORIGINATOR     = 

OBJECT_NAME    = STARLINK-35713
OBJECT_ID      = 2025-247P
CENTER_NAME    = EARTH
REF_FRAME      = TEME
TIME_SYSTEM    = UTC
MEAN_ELEMENT_THEORY = SGP/SGP4

EPOCH          = 2025-11-28T00:00:02.000160
MEAN_MOTION    = 15.39595249
ECCENTRICITY   = .00016214
INCLINATION    = 53.1601
RA_OF_ASC_NODE = 306.7882
ARG_OF_PERICENTER = 88.6744
MEAN_ANOMALY   = 215.7457

EPHEMERIS_TYPE = 0
CLASSIFICATION_TYPE = U
NORAD_CAT_ID   = 66278
ELEMENT_SET_NO = 999
REV_AT_EPOCH   = 556
BSTAR          = .79598132E-3
MEAN_MOTION_DOT = .31545E-3
MEAN_MOTION_DDOT = 0

CCSDS_OMM_VERS = 2.0
CREATION_DATE  = 
ORIGINATOR     = 

OBJECT_NAME    = STARLINK-35724
OBJECT_ID      = 2025-247Q
CENTER_NAME    = EARTH
REF_FRAME      = TEME
TIME_SYSTEM    = UTC
MEAN_ELEMENT_THEORY = SGP/SGP4

EPOCH          = 2025-11-28T00:00:02.000160
MEAN_MOTION    = 15.39593644
ECCENTRICITY   = .00013352
INCLINATION    = 53.1601
RA_OF_ASC_NODE = 306.7847
ARG_OF_PERICENTER = 94.4209
MEAN_ANOMALY   = 211.8592

EPHEMERIS_TYPE = 0
CLASSIFICATION_TYPE = U
NORAD_CAT_ID   = 66279
ELEMENT_SET_NO = 999
REV_AT_EPOCH   = 519
BSTAR          = .7647242E-3
MEAN_MOTION_DOT = .30284E-3
MEAN_MOTION_DDOT = 0

CCSDS_OMM_VERS = 2.0
CREATION_DATE  = 
ORIGINATOR     = 

OBJECT_NAME    = STARLINK-35726
OBJECT_ID      = 2025-247R
CENTER_NAME    = EARTH
REF_FRAME      = TEME
TIME_SYSTEM    = UTC
MEAN_ELEMENT_THEORY = SGP/SGP4

EPOCH          = 2025-11-28T00:00:02.000160
MEAN_MOTION    = 15.39591278
ECCENTRICITY   = .00014407
INCLINATION    = 53.1593
RA_OF_ASC_NODE = 306.8366
ARG_OF_PERICENTER = 95.1574
MEAN_ANOMALY   = 185.3772

EPHEMERIS_TYPE = 0
CLASSIFICATION_TYPE = U
NORAD_CAT_ID   = 66280
ELEMENT_SET_NO = 999
REV_AT_EPOCH   = 524
BSTAR          = .78435547E-3
MEAN_MOTION_DOT = .31072E-3
MEAN_MOTION_DDOT = 0

CCSDS_OMM_VERS = 2.0
CREATION_DATE  = 
ORIGINATOR     = 

OBJECT_NAME    = STARLINK-35727
OBJECT_ID      = 2025-247S
CENTER_NAME    = EARTH
REF_FRAME      = TEME
TIME_SYSTEM    = UTC
MEAN_ELEMENT_THEORY = SGP/SGP4

EPOCH          = 2025-11-28T00:00:02.000160
MEAN_MOTION    = 15.39618330
ECCENTRICITY   = .00022299
INCLINATION    = 53.1601
RA_OF_ASC_NODE = 306.7372
ARG_OF_PERICENTER = 87.5056
MEAN_ANOMALY   = 242.6235

EPHEMERIS_TYPE = 0
CLASSIFICATION_TYPE = U
NORAD_CAT_ID   = 66281
ELEMENT_SET_NO = 999
REV_AT_EPOCH   = 524
BSTAR          = .13354967E-2
MEAN_MOTION_DOT = .53393E-3
MEAN_MOTION_DDOT = 0

CCSDS_OMM_VERS = 2.0
CREATION_DATE  = 
ORIGINATOR     = 

OBJECT_NAME    = STARLINK-35776
OBJECT_ID      = 2025-247T
CENTER_NAME    = EARTH
REF_FRAME      = TEME
TIME_SYSTEM    = UTC
MEAN_ELEMENT_THEORY = SGP/SGP4

EPOCH          = 2025-11-28T00:00:02.000160
MEAN_MOTION    = 15.39602884
ECCENTRICITY   = .00021438
INCLINATION    = 53.1603
RA_OF_ASC_NODE = 306.7331
ARG_OF_PERICENTER = 87.1920
MEAN_ANOMALY   = 244.8267

EPHEMERIS_TYPE = 0
CLASSIFICATION_TYPE = U
NORAD_CAT_ID   = 66282
ELEMENT_SET_NO = 999
REV_AT_EPOCH   = 524
BSTAR          = .1305179E-2
MEAN_MOTION_DOT = .52136E-3
MEAN_MOTION_DDOT = 0

CCSDS_OMM_VERS = 2.0
CREATION_DATE  = 
ORIGINATOR     = 

OBJECT_NAME    = STARLINK-35774
OBJECT_ID      = 2025-247U
CENTER_NAME    = EARTH
REF_FRAME      = TEME
TIME_SYSTEM    = UTC
MEAN_ELEMENT_THEORY = SGP/SGP4

EPOCH          = 2025-11-28T00:00:02.000160
MEAN_MOTION    = 15.39589405
ECCENTRICITY   = .00014879
INCLINATION    = 53.1602
RA_OF_ASC_NODE = 306.6860
ARG_OF_PERICENTER = 94.9103
MEAN_ANOMALY   = 261.0153

EPHEMERIS_TYPE = 0
CLASSIFICATION_TYPE = U
NORAD_CAT_ID   = 66283
ELEMENT_SET_NO = 999
REV_AT_EPOCH   = 524
BSTAR          = .86658112E-3
MEAN_MOTION_DOT = .34384E-3
MEAN_MOTION_DDOT = 0

