STARLINK-35741          
1 66272U 25247H   25331.96339094  .00048900  00000+0  12238-2 0  9998
2 66272  53.1593 307.1660 0001395  84.9792 275.1372 15.39641027  5461
STARLINK-35730          
1 66273U 25247J   25331.95908345  .00050114  00000+0  12532-2 0  9996
2 66273  53.1592 307.1381 0001529  88.6206 271.4974 15.39653630  5461
STARLINK-35760          
1 66274U 25247K   25331.95874785  .00030788  00000+0  77603-3 0  9993
2 66274  53.1592 307.1361 0001799  86.1739 273.9472 15.39640838  5414
STARLINK-35752          
1 66275U 25247L   25332.00002315  .00034060  00000+0  85859-3 0  9992
2 66275  53.1591 306.8924 0001295  98.5596 154.3630 15.39587727  5240
STARLINK-35742          
1 66276U 25247M   25332.00002315  .00032241  00000+0  81338-3 0  9990
2 66276  53.1591 306.8887 0001312  97.3339 157.4514 15.39590207  5568
STARLINK-35708          
1 66277U 25247N   25332.00002315  .00032558  00000+0  82122-3 0  9994
2 66277  53.1592 306.8404 0001365  95.2285 183.4382 15.39591860  5568
STARLINK-35713          
1 66278U 25247P   25332.00002315  .00031545  00000+0  79598-3 0  9993
2 66278  53.1601 306.7882 0001621  88.6744 215.7457 15.39595249  5567
STARLINK-35724          
1 66279U 25247Q   25332.00002315  .00030284  00000+0  76472-3 0  9991
2 66279  53.1601 306.7847 0001335  94.4209 211.8592 15.39593644  5195
STARLINK-35726          
1 66280U 25247R   25332.00002315  .00031072  00000+0  78436-3 0  9991
2 66280  53.1593 306.8366 0001440  95.1574 185.3772 15.39591278  5246
STARLINK-35727          
1 66281U 25247S   25332.00002315  .00053393  00000+0  13355-2 0  9990
2 66281  53.1601 306.7372 0002229  87.5056 242.6235 15.39618330  5249
STARLINK-35776          
1 66282U 25247T   25332.00002315  .00052136  00000+0  13052-2 0  9999
2 66282  53.1603 306.7331 0002143  87.1920 244.8267 15.39602884  5244
STARLINK-35774          
1 66283U 25247U   25332.00002315  .00034384  00000+0  86658-3 0  9998
2 66283  53.1602 306.6860 0001487  94.9103 261.0153 15.39589405  5247
